ONEWEB-0531             
1 54146U 22138AK  24312.19313112  .00000109  00000+0  23516-3 0  9998
2 54146  87.9295  31.2083 0000735 113.8728 246.2483 13.20773442102694
ONEWEB-0535             
1 54147U 22138AL  24312.02987188  .00000099  00000+0  21476-3 0  9992
2 54147  87.9176  61.7127 0001386 104.3281 255.8006 13.19726412100263
ONEWEB-0536             
1 54148U 22138AM  24311.95322700  .00000116  00000+0  25238-3 0  9997
2 54148  87.9295  31.3037 0001233 133.8184 226.3052 13.20769743101787
ONEWEB-0527             
1 54642U 22166A   24312.14573061  .00000074  00000+0  14765-3 0  9993
2 54642  87.9332   0.9317 0001805  93.3381 266.7960 13.21823084 94434
ONEWEB-0528             
1 54643U 22166B   24311.69787862  .00000000  00000+0 -31809-4 0  9998
2 54643  87.9339   1.0123 0001925  94.7170 265.4184 13.21825886 93933
ONEWEB-0539             
1 54644U 22166C   24311.65844055 -.00000015  00000+0 -67283-4 0  9995
2 54644  87.9340   1.0241 0002020 100.8852 259.2509 13.21823132 93923
ONEWEB-0540             
1 54645U 22166D   24311.65292894 -.00000009  00000+0 -54093-4 0  9992
2 54645  87.9334   1.0354 0002018 102.1564 257.9796 13.21824366 93916
ONEWEB-0542             
1 54646U 22166E   24311.66790171  .00000069  00000+0  13651-3 0  9993
2 54646  87.9338   1.0210 0001982 110.4235 249.7112 13.21822825 93928
